GLOBALSTAR M094         
1 39074U 13005C   25180.29183730 -.00000118  00000+0 -79286-4 0  9998
2 39074  51.9936 145.2599 0000403 342.8277  17.2576 12.62262829573905
GLOBALSTAR M096         
1 39075U 13005D   25180.30498886 -.00000118  00000+0 -80210-4 0  9991
2 39075  52.0043 193.7449 0000254 261.7338  98.3500 12.62265600572827
GLOBALSTAR M078         
1 39076U 13005E   25180.51614722 -.00000063  00000+0  22839-3 0  9994
2 39076  51.9881 277.5969 0001080 176.1610 183.9265 12.62257910571478
GLOBALSTAR M095         
1 39077U 13005F   25180.54240145 -.00000080  00000+0  13252-3 0  9990
2 39077  51.9812 274.7069 0000602 179.5914 180.4953 12.62267853571334
GLOBALSTAR M087         
1 52888U 22064A   25180.33557296 -.00000088  00000+0  88482-4 0  9991
2 52888  52.0006  56.8145 0000632  67.1126 292.9807 12.62263606146573
